{"data":[{"areaId":11021,"title":"安徽省","parentId":0,"sortValue":12,"isHot":0,"pinYin":"anhuisheng"},{"areaId":13257,"title":"澳门特别行政区","parentId":0,"sortValue":34,"isHot":0,"pinYin":"aomentebiexingzhengqu"},{"areaId":10001,"title":"北京市","parentId":0,"sortValue":1,"isHot":0,"pinYin":"beijingshi"},{"areaId":12245,"title":"重庆市","parentId":0,"sortValue":22,"isHot":0,"pinYin":"chongqingshi"},{"areaId":11143,"title":"福建省","parentId":0,"sortValue":13,"isHot":0,"pinYin":"fujiansheng"},{"areaId":12935,"title":"甘肃省","parentId":0,"sortValue":28,"isHot":0,"pinYin":"gansusheng"},{"areaId":11935,"title":"广东省","parentId":0,"sortValue":19,"isHot":0,"pinYin":"guangdongsheng"},{"areaId":12081,"title":"广西壮族自治区","parentId":0,"sortValue":20,"isHot":0,"pinYin":"guangxizhuangzuzizhiqu"},{"areaId":12491,"title":"贵州省","parentId":0,"sortValue":24,"isHot":0,"pinYin":"guizhousheng"},{"areaId":12207,"title":"海南省","parentId":0,"sortValue":21,"isHot":0,"pinYin":"hainansheng"},{"areaId":10037,"title":"河北省","parentId":0,"sortValue":3,"isHot":0,"pinYin":"hebeisheng"},{"areaId":10649,"title":"黑龙江省","parentId":0,"sortValue":8,"isHot":0,"pinYin":"heilongjiangsheng"},{"areaId":11505,"title":"河南省","parentId":0,"sortValue":16,"isHot":0,"pinYin":"henansheng"},{"areaId":11681,"title":"湖北省","parentId":0,"sortValue":17,"isHot":0,"pinYin":"hubeisheng"},{"areaId":11798,"title":"湖南省","parentId":0,"sortValue":18,"isHot":0,"pinYin":"hunansheng"},{"areaId":10810,"title":"江苏省","parentId":0,"sortValue":10,"isHot":0,"pinYin":"jiangsusheng"},{"areaId":11238,"title":"江西省","parentId":0,"sortValue":14,"isHot":0,"pinYin":"jiangxisheng"},{"areaId":10579,"title":"吉林省","parentId":0,"sortValue":7,"isHot":0,"pinYin":"jilinsheng"},{"areaId":10464,"title":"辽宁省","parentId":0,"sortValue":6,"isHot":0,"pinYin":"liaoningsheng"},{"areaId":10348,"title":"内蒙古自治区","parentId":0,"sortValue":5,"isHot":0,"pinYin":"neimengguzizhiqu"},{"areaId":13089,"title":"宁夏回族自治区","parentId":0,"sortValue":30,"isHot":0,"pinYin":"ningxiahuizuzizhiqu"},{"areaId":13036,"title":"青海省","parentId":0,"sortValue":29,"isHot":0,"pinYin":"qinghaisheng"},{"areaId":11350,"title":"山东省","parentId":0,"sortValue":15,"isHot":0,"pinYin":"shandongsheng"},{"areaId":10792,"title":"上海市","parentId":0,"sortValue":9,"isHot":0,"pinYin":"shanghaishi"},{"areaId":12817,"title":"陕西省","parentId":0,"sortValue":27,"isHot":0,"pinYin":"shanxisheng"},{"areaId":10217,"title":"山西省","parentId":0,"sortValue":4,"isHot":0,"pinYin":"shanxisheng"},{"areaId":12286,"title":"四川省","parentId":0,"sortValue":23,"isHot":0,"pinYin":"sichuansheng"},{"areaId":13237,"title":"台湾省","parentId":0,"sortValue":32,"isHot":0,"pinYin":"taiwansheng"},{"areaId":10019,"title":"天津市","parentId":0,"sortValue":2,"isHot":0,"pinYin":"tianjinshi"},{"areaId":13238,"title":"香港特别行政区","parentId":0,"sortValue":33,"isHot":0,"pinYin":"xianggangtebiexingzhengqu"},{"areaId":13117,"title":"新疆维吾尔自治区","parentId":0,"sortValue":31,"isHot":0,"pinYin":"xinjiangweiwuerzizhiqu"},{"areaId":12735,"title":"西藏自治区","parentId":0,"sortValue":26,"isHot":0,"pinYin":"xizangzizhiqu"},{"areaId":12589,"title":"云南省","parentId":0,"sortValue":25,"isHot":0,"pinYin":"yunnansheng"},{"areaId":10920,"title":"浙江省","parentId":0,"sortValue":11,"isHot":0,"pinYin":"zhejiangsheng"}]}